GLOBALSTAR M075         
1 37192U 10054E   26013.18433024 -.00000080  00000+0  13438-3 0  9999
2 37192  51.9941 262.1438 0000821  69.0311 104.1379 12.62263484702361
GLOBALSTAR M073         
1 37193U 10054F   26013.70375367 -.00000089  00000+0  85133-4 0  9994
2 37193  52.0039 174.5419 0001217  88.6735 284.0878 12.62268986704427
GLOBALSTAR M083         
1 37739U 11033A   26013.55840071 -.00000107  00000+0 -15269-4 0  9995
2 37739  51.9852 123.4243 0000891  98.6950 275.0917 12.62266494673420
GLOBALSTAR M088         
1 37740U 11033B   26013.80451157 -.00000095  00000+0  49951-4 0  9998
2 37740  52.0235  28.7280 0000246 121.3549  50.9164 12.62271558668996
GLOBALSTAR M091         
1 37741U 11033C   26013.94620003 -.00000096  00000+0  41824-4 0  9994
2 37741  52.0025 351.4923 0000294  37.0851 358.4144 12.62268567669807
GLOBALSTAR M085         
1 37742U 11033D   26013.56686395 -.00000089  00000+0  84575-4 0  9991
2 37742  52.0147 303.8051 0000678  36.5270 134.9286 12.62268046670269
GLOBALSTAR M081         
1 37743U 11033E   26013.59305756 -.00000096  00000+0  45649-4 0  9991
2 37743  51.9976 306.3351 0000775  51.5010 120.1771 12.62271723670415
GLOBALSTAR M089         
1 37744U 11033F   26013.39531373 -.00000089  00000+0  83792-4 0  9999
2 37744  51.9924 261.1276 0001039  84.3518  87.9398 12.62263463671232
